{
  "type": "FeatureCollection",
  "features": [
    {
      "type": "Feature",
      "properties": {
        "norad_id": 33625,
        "name": "FENGYUN 1C DEB",
        "group": "fengyun-1c-debris",
        "lat": -34.48919789701931,
        "lon": -90.01417428491294,
        "alt_km": 652.976713584666,
        "timestamp": "2025-12-11T08:58:27.410757+00:00",
        "meta_object_name": "FENGYUN 1C DEB",
        "meta_object_id": "1999-025DDJ",
        "meta_epoch": "2025-12-01T01:24:31.444992",
        "meta_mean_motion": 14.60592393,
        "meta_eccentricity": 0.02269611,
        "meta_inclination": 98.6203,
        "meta_ra_of_asc_node": 85.2252,
        "meta_arg_of_pericenter": 171.2387,
        "meta_mean_anomaly": 189.288,
        "meta_ephemeris_type": 0,
        "meta_classification_type": "U",
        "meta_norad_cat_id": 33625,
        "meta_element_set_no": 999,
        "meta_rev_at_epoch": 61220,
        "meta_bstar": 0.0017865562,
        "meta_mean_motion_dot": 0.00012473,
        "meta_mean_motion_ddot": 0,
        "tle_line1": "1 33625U 99025DDJ 25335.05869728  .00012473  00000+0  17866-2 0  9993",
        "tle_line2": "2 33625  98.6203  85.2252 0226961 171.2387 189.2880 14.60592393612207"
      },
      "geometry": {
        "type": "Point",
        "coordinates": [
          -90.01417428491294,
          -34.48919789701931
        ]
      }
    },
    {
      "type": "Feature",
      "properties": {
        "norad_id": 33630,
        "name": "FENGYUN 1C DEB",
        "group": "fengyun-1c-debris",
        "lat": -40.83185039265608,
        "lon": -95.92085116895895,
        "alt_km": 923.247176154563,
        "timestamp": "2025-12-11T08:58:27.410768+00:00",
        "meta_object_name": "FENGYUN 1C DEB",
        "meta_object_id": "1999-025DDP",
        "meta_epoch": "2025-12-09T13:35:56.277312",
        "meta_mean_motion": 14.17713216,
        "meta_eccentricity": 0.0135528,
        "meta_inclination": 98.6166,
        "meta_ra_of_asc_node": 89.8546,
        "meta_arg_of_pericenter": 77.2482,
        "meta_mean_anomaly": 284.3802,
        "meta_ephemeris_type": 0,
        "meta_classification_type": "U",
        "meta_norad_cat_id": 33630,
        "meta_element_set_no": 999,
        "meta_rev_at_epoch": 64366,
        "meta_bstar": 0.00061826,
        "meta_mean_motion_dot": 1.337e-05,
        "meta_mean_motion_ddot": 0,
        "tle_line1": "1 33630U 99025DDP 25343.56662358  .00001337  00000+0  61826-3 0  9997",
        "tle_line2": "2 33630  98.6166  89.8546 0135528  77.2482 284.3802 14.17713216643662"
      },
      "geometry": {
        "type": "Point",
        "coordinates": [
          -95.92085116895895,
          -40.83185039265608
        ]
      }
    },
    {
      "type": "Feature",
      "properties": {
        "norad_id": 33633,
        "name": "FENGYUN 1C DEB",
        "group": "fengyun-1c-debris",
        "lat": -72.37669026477091,
        "lon": -130.50232539614808,
        "alt_km": 844.9709454194699,
        "timestamp": "2025-12-11T08:58:27.410778+00:00",
        "meta_object_name": "FENGYUN 1C DEB",
        "meta_object_id": "1999-025DDS",
        "meta_epoch": "2025-12-09T05:09:41.870880",
        "meta_mean_motion": 14.19278753,
        "meta_eccentricity": 0.0083508,
        "meta_inclination": 99.0481,
        "meta_ra_of_asc_node": 77.4006,
        "meta_arg_of_pericenter": 160.8678,
        "meta_mean_anomaly": 228.508,
        "meta_ephemeris_type": 0,
        "meta_classification_type": "U",
        "meta_norad_cat_id": 33633,
        "meta_element_set_no": 999,
        "meta_rev_at_epoch": 90661,
        "meta_bstar": 0.003396465,
        "meta_mean_motion_dot": 7.339e-05,
        "meta_mean_motion_ddot": 0,
        "tle_line1": "1 33633U 99025DDS 25343.21506795  .00007339  00000+0  33965-2 0  9994",
        "tle_line2": "2 33633  99.0481  77.4006 0083508 160.8678 228.5080 14.19278753906619"
      },
      "geometry": {
        "type": "Point",
        "coordinates": [
          -130.50232539614808,
          -72.37669026477091
        ]
      }
    },
    {
      "type": "Feature",
      "properties": {
        "norad_id": 33637,
        "name": "FENGYUN 1C DEB",
        "group": "fengyun-1c-debris",
        "lat": 47.726420159427896,
        "lon": 20.911768984026864,
        "alt_km": 781.8766640564027,
        "timestamp": "2025-12-11T08:58:27.410789+00:00",
        "meta_object_name": "FENGYUN 1C DEB",
        "meta_object_id": "1999-025DDW",
        "meta_epoch": "2025-12-09T09:56:48.020352",
        "meta_mean_motion": 14.36708796,
        "meta_eccentricity": 0.00831325,
        "meta_inclination": 98.4929,
        "meta_ra_of_asc_node": 28.4392,
        "meta_arg_of_pericenter": 161.2491,
        "meta_mean_anomaly": 199.1789,
        "meta_ephemeris_type": 0,
        "meta_classification_type": "U",
        "meta_norad_cat_id": 33637,
        "meta_element_set_no": 999,
        "meta_rev_at_epoch": 64790,
        "meta_bstar": 0.0018693343,
        "meta_mean_motion_dot": 5.692e-05,
        "meta_mean_motion_ddot": 0,
        "tle_line1": "1 33637U 99025DDW 25343.41444468  .00005692  00000+0  18693-2 0  9999",
        "tle_line2": "2 33637  98.4929  28.4392 0083132 161.2491 199.1789 14.36708796647905"
      },
      "geometry": {
        "type": "Point",
        "coordinates": [
          20.911768984026864,
          47.726420159427896
        ]
      }
    },
    {
      "type": "Feature",
      "properties": {
        "norad_id": 33638,
        "name": "FENGYUN 1C DEB",
        "group": "fengyun-1c-debris",
        "lat": 29.673704472681944,
        "lon": 61.09412148187163,
        "alt_km": 1114.522867485045,
        "timestamp": "2025-12-11T08:58:27.410799+00:00",
        "meta_object_name": "FENGYUN 1C DEB",
        "meta_object_id": "1999-025DDX",
        "meta_epoch": "2025-12-06T22:59:54.556512",
        "meta_mean_motion": 13.6928665,
        "meta_eccentricity": 0.02653124,
        "meta_inclination": 98.4647,
        "meta_ra_of_asc_node": 232.3409,
        "meta_arg_of_pericenter": 288.5007,
        "meta_mean_anomaly": 68.7482,
        "meta_ephemeris_type": 0,
        "meta_classification_type": "U",
        "meta_norad_cat_id": 33638,
        "meta_element_set_no": 999,
        "meta_rev_at_epoch": 60836,
        "meta_bstar": 0.0023450571,
        "meta_mean_motion_dot": 2.567e-05,
        "meta_mean_motion_ddot": 0,
        "tle_line1": "1 33638U 99025DDX 25340.95827033  .00002567  00000+0  23451-2 0  9995",
        "tle_line2": "2 33638  98.4647 232.3409 0265312 288.5007  68.7482 13.69286650608369"
      },
      "geometry": {
        "type": "Point",
        "coordinates": [
          61.09412148187163,
          29.673704472681944
        ]
      }
    },
    {
      "type": "Feature",
      "properties": {
        "norad_id": 33639,
        "name": "FENGYUN 1C DEB",
        "group": "fengyun-1c-debris",
        "lat": 72.89314035733865,
        "lon": -73.78437740632589,
        "alt_km": 784.7125055824854,
        "timestamp": "2025-12-11T08:58:27.410809+00:00",
        "meta_object_name": "FENGYUN 1C DEB",
        "meta_object_id": "1999-025DDY",
        "meta_epoch": "2025-12-03T23:45:48.189312",
        "meta_mean_motion": 14.40248408,
        "meta_eccentricity": 0.00493059,
        "meta_inclination": 98.7136,
        "meta_ra_of_asc_node": 68.813,
        "meta_arg_of_pericenter": 315.1865,
        "meta_mean_anomaly": 44.5345,
        "meta_ephemeris_type": 0,
        "meta_classification_type": "U",
        "meta_norad_cat_id": 33639,
        "meta_element_set_no": 999,
        "meta_rev_at_epoch": 60456,
        "meta_bstar": 0.0043899516,
        "meta_mean_motion_dot": 0.00014079,
        "meta_mean_motion_ddot": 0,
        "tle_line1": "1 33639U 99025DDY 25337.99014108  .00014079  00000+0  43900-2 0  9999",
        "tle_line2": "2 33639  98.7136  68.8130 0049305 315.1865  44.5345 14.40248408604567"
      },
      "geometry": {
        "type": "Point",
        "coordinates": [
          -73.78437740632589,
          72.89314035733865
        ]
      }
    },
    {
      "type": "Feature",
      "properties": {
        "norad_id": 33640,
        "name": "FENGYUN 1C DEB",
        "group": "fengyun-1c-debris",
        "lat": -80.35973919077037,
        "lon": 41.68440461133784,
        "alt_km": 759.6832809281714,
        "timestamp": "2025-12-11T08:58:27.410819+00:00",
        "meta_object_name": "FENGYUN 1C DEB",
        "meta_object_id": "1999-025DDZ",
        "meta_epoch": "2025-12-07T19:02:56.918112",
        "meta_mean_motion": 14.458694,
        "meta_eccentricity": 0.00904679,
        "meta_inclination": 98.8406,
        "meta_ra_of_asc_node": 284.3391,
        "meta_arg_of_pericenter": 174.4583,
        "meta_mean_anomaly": 185.763,
        "meta_ephemeris_type": 0,
        "meta_classification_type": "U",
        "meta_norad_cat_id": 33640,
        "meta_element_set_no": 999,
        "meta_rev_at_epoch": 92271,
        "meta_bstar": 0.00085213272,
        "meta_mean_motion_dot": 3.134e-05,
        "meta_mean_motion_ddot": 0,
        "tle_line1": "1 33640U 99025DDZ 25341.79371433  .00003134  00000+0  85213-3 0  9995",
        "tle_line2": "2 33640  98.8406 284.3391 0090467 174.4583 185.7630 14.45869400922713"
      },
      "geometry": {
        "type": "Point",
        "coordinates": [
          41.68440461133784,
          -80.35973919077037
        ]
      }
    }
  ]
}